[{"OBJECT_NAME":"STARLINK-1955","OBJECT_ID":"2021-009J","EPOCH":"2026-03-09T22:00:01.999584","MEAN_MOTION":15.99131974,"ECCENTRICITY":0.00038624,"INCLINATION":53.0322,"RA_OF_ASC_NODE":323.8647,"ARG_OF_PERICENTER":195.2437,"MEAN_ANOMALY":276.6765,"EPHEMERIS_TYPE":0,"CLASSIFICATION_TYPE":"U","NORAD_CAT_ID":47556,"ELEMENT_SET_NO":999,"REV_AT_EPOCH":599,"BSTAR":0.0012154093,"MEAN_MOTION_DOT":0.00604364,"MEAN_MOTION_DDOT":0.00017119664},{"OBJECT_NAME":"STARLINK-36940","OBJECT_ID":"2026-040N","EPOCH":"2026-03-09T22:00:01.999584","MEAN_MOTION":16.07932887,"ECCENTRICITY":8.666e-5,"INCLINATION":97.2769,"RA_OF_ASC_NODE":17.1437,"ARG_OF_PERICENTER":84.9989,"MEAN_ANOMALY":342.7519,"EPHEMERIS_TYPE":0,"CLASSIFICATION_TYPE":"U","NORAD_CAT_ID":68027,"ELEMENT_SET_NO":999,"REV_AT_EPOCH":256,"BSTAR":-0.0014176414,"MEAN_MOTION_DOT":-0.01147173,"MEAN_MOTION_DDOT":0.00046436011}]
